ARIANE 5 R/B            
1 28499U 04049H   26030.02945305  .00001670  00000+0  18956-3 0  9993
2 28499  98.2559 197.0570 0085392 116.0564 244.9472 14.85178619140053
CZ-2D R/B               
1 28738U 05024B   26030.31149409  .00048277  00000+0  67162-3 0  9993
2 28738  97.3615  44.1507 0006548 140.2014 219.9723 15.56809337133802
ALOS (DAICHI)           
1 28931U 06002A   26030.31009093  .00002157  00000+0  37060-3 0  9990
2 28931  98.1152 346.4780 0002132  74.8543 285.2898 14.69676316 67848
H-2A R/B                
1 28932U 06002B   26030.12910045  .00011547  00000+0  58919-3 0  9997
2 28932  98.2342 173.8799 0053551  13.6619 346.6046 15.15647210 88594
RESURS-DK 1             
1 29228U 06021A   26030.24665660  .00004322  00000+0  25365-3 0  9992
2 29228  69.9348 336.4457 0005133 212.7287 147.3561 15.12502562 81710
CZ-4B R/B               
1 29507U 06046C   26030.07992597  .00007735  00000+0  39478-3 0  9993
2 29507  97.5671  75.0896 0034604  43.4319 316.9630 15.16472838 54198
CZ-2C R/B               
1 31114U 07010B   26030.26000285  .00000158  00000+0  91213-4 0  9995
2 31114  98.3970 145.4695 0059739  46.7589 313.8553 14.20232346974267
COSMO-SKYMED 1          
1 31598U 07023A   26030.28144656  .00005906  00000+0  52868-3 0  9996
2 31598  97.8859 221.0160 0001535  83.4024 276.7371 14.96223703  9167
COSMOS 2428             
1 31792U 07029A   26030.16359416  .00000421  00000+0  25188-3 0  9999
2 31792  70.9401 284.2165 0006652 320.1518  39.9114 14.12924895958657
SL-16 R/B               
1 31793U 07029B   26030.04922935  .00000197  00000+0  12688-3 0  9990
2 31793  70.9730 253.6096 0001838 271.7815 238.2178 14.14823314959907
KORONAS-FOTON           
1 33504U 09003A   26030.23812480  .00013585  00000+0  31387-3 0  9992
2 33504  82.4329 315.8163 0009290 303.0403  56.9951 15.42331884939819
CZ-2C R/B               
1 37731U 11030B   26029.90287046  .00002165  00000+0  27892-3 0  9995
2 37731  97.8473 347.9658 0054022 115.8395 310.1402 14.81072705784351
H-2A R/B                
1 38341U 12025E   26030.24361940  .00005610  00000+0  51043-3 0  9996
2 38341  98.4659 354.2438 0046477  78.9240 281.7200 14.94825604742476
SHIJIAN-16 (SJ-16)      
1 39358U 13057A   26030.28074760  .00001612  00000+0  16058-3 0  9991
2 39358  74.9722 257.7960 0017459 207.3164 152.7108 14.92215999665772
SL-4 R/B                
1 39679U 14021B   26029.78576172  .00016870  00000+0  38492-3 0  9994
2 39679  51.6056 166.8823 0099003 321.0887  38.2998 15.37965242650287
ALOS-2                  
1 39766U 14029A   26027.46285272  .00000535  00000+0  78529-4 0  9997
2 39766  97.9188 126.6510 0001467 100.4748 259.6629 14.79473850630778
YAOGAN-29               
1 41038U 15069A   26030.26729172  .00000326  00000+0  46892-4 0  9997
2 41038  98.0192  58.5879 0002832 101.1587 258.9945 14.82948456550189
ASTRO-H (HITOMI)        
1 41337U 16012A   26030.29087270  .00004190  00000+0  24763-3 0  9992
2 41337  30.9984 244.2924 0009948 307.0201  52.9527 15.09719207546425
HXMT (HUIYAN)           
1 42758U 17034A   26029.93546119  .00006101  00000+0  31142-3 0  9999
2 42758  43.0122 232.0468 0032270 347.2742  12.7288 15.16947191476658
CZ-2C R/B               
1 43521U 18054D   26029.79599571  .00292678  31860-4  92574-3 0  9990
2 43521  35.1287 211.8047 0013407 285.1066  74.8188 15.90042907422662
SAOCOM 1A               
1 43641U 18076A   26028.92922646  .00000616  00000+0  83849-4 0  9996
2 43641  97.8867 217.6667 0001462  81.3911 278.7468 14.82171821395471
H-2A R/B                
1 43682U 18084L   26030.14916492  .00027053  00000+0  67955-3 0  9992
2 43682  98.8764 239.3489 0026102 155.5975 204.6508 15.39621351399847
SAOCOM 1B               
1 46265U 20059A   26030.24321581  .00000423  00000+0  59724-4 0  9995
2 46265  97.8863 218.0601 0001359  82.3350 277.8018 14.82150643293059
CSS (TIANHE)            
1 48274U 21035A   26030.17114424  .00032690  00000+0  37481-3 0  9996
2 48274  41.4674  82.2287 0009086  36.5911 323.5548 15.61350410271590
COSMOS 2550             
1 48865U 21056A   26026.13240542 -.00000181  00000+0  32270-6 0  9992
2 48865  67.1441 169.6578 0008309 269.8947  90.1255 15.33840202256938
CZ-2C R/B               
1 52794U 22058K   26030.28863227  .00036059  00000+0  57980-3 0  9997
2 52794  50.1882 155.4184 0042457  38.3131 322.0842 15.51569991204167
CZ-2C R/B               
1 54039U 22132E   26029.95132299  .00051445  00000+0  66795-3 0  9994
2 54039  97.2950  32.2000 0016913 228.8824 131.0973 15.58499375184335
GSLV R/B                
1 54149U 22138AN  26029.94061131  .00005054  00000+0  44144-3 0  9996
2 54149  87.3842 179.3295 0019584 295.4110  64.5093 14.96467685178135
XRISM                   
1 57800U 23137A   26030.06857993  .00008162  00000+0  47085-3 0  9997
2 57800  31.0005 173.3673 0007977  11.9080 348.1746 15.10995589131943
ACS3                    
1 59588U 24077B   26029.88035589  .00022248  00000+0  18508-1 0  9990
2 59588  97.2280 339.7143 0046875 203.3583 156.5451 13.87964269 88816
SZ-21 MODULE            
1 66515U 25246C   26030.19811666  .00040110  00000+0  38767-3 0  9990
2 66515  41.4758  79.7800 0003420 256.7096 103.3364 15.65663089 12034
